LANDSAT 9               
1 49260U 21088A   24276.15829109  .00002344  00000+0  53030-3 0  9992
2 49260  98.2220 344.4211 0001379  91.7024 268.4332 14.57107731160267
